COMMENT,ORIGINATOR,NORAD_CAT_ID,OBJECT_NAME,OBJECT_TYPE,CLASSIFICATION_TYPE,INTLDES,EPOCH,EPOCH_MICROSECONDS,MEAN_MOTION,ECCENTRICITY,INCLINATION,RA_OF_ASC_NODE,ARG_OF_PERICENTER,MEAN_ANOMALY,EPHEMERIS_TYPE,ELEMENT_SET_NO,REV_AT_EPOCH,BSTAR,MEAN_MOTION_DOT,MEAN_MOTION_DDOT,FILE,TLE_LINE0,TLE_LINE1,TLE_LINE2,OBJECT_ID,OBJECT_NUMBER,SEMIMAJOR_AXIS,PERIOD,APOGEE,PERIGEE,DECAYED
"GENERATED VIA SPACETRACK.ORG API","18 SPCS","55100","SPACEBEE-158","PAYLOAD","U","23001CV","2024-01-03 03:27:47","46528","15.30344789","0.0013046","97.4502","67.4811","25.1572","335.0301","0","999","5556","0.00092654","0.00027253","0","4152560","0 SPACEBEE-158","1 55100U 23001CV  24003.14429452  .00027253  00000-0  92654-3 0  9995","2 55100  97.4502  67.4811 0013046  25.1572 335.0301 15.30344789 55563","2023-001CV","55100","6852.920","94.096","483.725","465.844","0"
"GENERATED VIA SPACETRACK.ORG API","18 SPCS","55100","SPACEBEE-158","PAYLOAD","U","23001CV","2024-01-03 17:35:11","309856","15.3037454","0.0012933","97.4504","68.0712","23.171","337.0111","0","999","5565","0.00087685","0.00025805","0","4152812","0 SPACEBEE-158","1 55100U 23001CV  24003.73276979  .00025805  00000-0  87685-3 0  9993","2 55100  97.4504  68.0712 0012933  23.1710 337.0111 15.30374540 55657","2023-001CV","55100","6852.831","94.095","483.559","465.833","0"
"GENERATED VIA SPACETRACK.ORG API","18 SPCS","55100","SPACEBEE-158","PAYLOAD","U","23001CV","2024-01-04 03:00:06","927552","15.30396714","0.0012947","97.4505","68.465","21.7312","338.4475","0","999","5571","0.00097266","0.00028664","0","4153368","0 SPACEBEE-158","1 55100U 23001CV  24004.12508018  .00028664  00000-0  97266-3 0  9991","2 55100  97.4505  68.4650 0012947  21.7312 338.4475 15.30396714 55712","2023-001CV","55100","6852.765","94.093","483.502","465.758","0"
"GENERATED VIA SPACETRACK.ORG API","18 SPCS","55100","SPACEBEE-158","PAYLOAD","U","23001CV","2024-01-04 17:07:29","387712","15.30427659","0.0012846","97.4505","69.0552","20.0462","340.1281","0","999","5580","0.00083968","0.00024744","0","4153569","0 SPACEBEE-158","1 55100U 23001CV  24004.71353458  .00024744  00000-0  83968-3 0  9991","2 55100  97.4505  69.0552 0012846  20.0462 340.1281 15.30427659 55804","2023-001CV","55100","6852.672","94.091","483.340","465.734","0"
"GENERATED VIA SPACETRACK.ORG API","18 SPCS","55100","SPACEBEE-158","PAYLOAD","U","23001CV","2024-01-04 17:07:29","387712","15.30427659","0.0012846","97.4505","69.0552","20.0462","340.1281","0","999","5580","0.00083968","0.00024744","0","4153685","0 SPACEBEE-158","1 55100U 23001CV  24004.71353458  .00024744  00000-0  83968-3 0  9991","2 55100  97.4505  69.0552 0012846  20.0462 340.1281 15.30427659 55804","2023-001CV","55100","6852.672","94.091","483.340","465.734","0"
"GENERATED VIA SPACETRACK.ORG API","18 SPCS","55100","SPACEBEE-158","PAYLOAD","U","23001CV","2024-01-05 02:32:23","781120","15.30448876","0.0012856","97.4505","69.4491","18.5849","341.5859","0","999","5586","0.00084224","0.00024837","0","4154254","0 SPACEBEE-158","1 55100U 23001CV  24005.10583080  .00024837  00000-0  84224-3 0  9990","2 55100  97.4505  69.4491 0012856  18.5849 341.5859 15.30448876 55868","2023-001CV","55100","6852.609","94.090","483.284","465.664","0"
"GENERATED VIA SPACETRACK.ORG API","18 SPCS","55100","SPACEBEE-158","PAYLOAD","U","23001CV","2024-01-05 16:39:44","524512","15.30478823","0.0012757","97.4506","70.0394","16.6627","343.5031","0","999","5595","0.00076689","0.00022621","0","4154502","0 SPACEBEE-158","1 55100U 23001CV  24005.69426533  .00022621  00000-0  76689-3 0  9998","2 55100  97.4506  70.0394 0012757  16.6627 343.5031 15.30478823 55951","2023-001CV","55100","6852.520","94.088","483.126","465.643","0"
"GENERATED VIA SPACETRACK.ORG API","18 SPCS","55100","SPACEBEE-158","PAYLOAD","U","23001CV","2024-01-06 03:38:46","589568","15.30505079","0.0012735","97.4505","70.4988","15.0451","345.1165","0","999","5602","0.00087914","0.00025976","0","4154742","0 SPACEBEE-158","1 55100U 23001CV  24006.15192812  .00025976  00000-0  87914-3 0  9999","2 55100  97.4505  70.4988 0012735  15.0451 345.1165 15.30505079 56026","2023-001CV","55100","6852.441","94.087","483.033","465.580","0"
"GENERATED VIA SPACETRACK.ORG API","18 SPCS","55100","SPACEBEE-158","PAYLOAD","U","23001CV","2024-01-06 03:38:46","589568","15.30505079","0.0012735","97.4505","70.4988","15.0451","345.1165","0","999","5602","0.00087914","0.00025976","0","4155067","0 SPACEBEE-158","1 55100U 23001CV  24006.15192812  .00025976  00000-0  87914-3 0  9999","2 55100  97.4505  70.4988 0012735  15.0451 345.1165 15.30505079 56026","2023-001CV","55100","6852.441","94.087","483.033","465.580","0"
"GENERATED VIA SPACETRACK.ORG API","18 SPCS","55100","SPACEBEE-158","PAYLOAD","U","23001CV","2024-01-06 17:46:05","546208","15.30533326","0.0012652","97.4506","71.0891","12.9385","347.2178","0","999","5611","0.00081174","0.00023992","0","4155325","0 SPACEBEE-158","1 55100U 23001CV  24006.74034197  .00023992  00000-0  81174-3 0  9993","2 55100  97.4506  71.0891 0012652  12.9385 347.2178 15.30533326 56110","2023-001CV","55100","6852.357","94.085","482.892","465.552","0"
"GENERATED VIA SPACETRACK.ORG API","18 SPCS","55100","SPACEBEE-158","PAYLOAD","U","23001CV","2024-01-07 09:27:32","26752","15.30568877","0.0012614","97.4506","71.7452","10.5651","349.5853","0","999","5621","0.00087146","0.00025797","0","4155787","0 SPACEBEE-158","1 55100U 23001CV  24007.39412068  .00025797  00000-0  87146-3 0  9992","2 55100  97.4506  71.7452 0012614  10.5651 349.5853 15.30568877 56213","2023-001CV","55100","6852.251","94.083","482.759","465.472","0"
"GENERATED VIA SPACETRACK.ORG API","18 SPCS","55100","SPACEBEE-158","PAYLOAD","U","23001CV","2024-01-07 09:27:32","26752","15.30568877","0.0012614","97.4506","71.7452","10.5651","349.5853","0","999","5621","0.00087146","0.00025797","0","4155883","0 SPACEBEE-158","1 55100U 23001CV  24007.39412068  .00025797  00000-0  87146-3 0  9992","2 55100  97.4506  71.7452 0012614  10.5651 349.5853 15.30568877 56213","2023-001CV","55100","6852.251","94.083","482.759","465.472","0"
"GENERATED VIA SPACETRACK.ORG API","18 SPCS","55100","SPACEBEE-158","PAYLOAD","U","23001CV","2024-01-07 17:18:14","830272","15.30587172","0.0012632","97.4507","72.0734","9.4429","350.7047","0","999","5626","0.00091349","0.00027065","0","4156156","0 SPACEBEE-158","1 55100U 23001CV  24007.72100498  .00027065  00000-0  91349-3 0  9990","2 55100  97.4507  72.0734 0012632   9.4429 350.7047 15.30587172 56264","2023-001CV","55100","6852.196","94.082","482.717","465.406","0"
"GENERATED VIA SPACETRACK.ORG API","18 SPCS","55100","SPACEBEE-158","PAYLOAD","U","23001CV","2024-01-08 02:43:05","684736","15.30609634","0.0012711","97.4506","72.4667","7.915","352.2289","0","999","5632","0.00091489","0.00027127","0","4156666","0 SPACEBEE-158","1 55100U 23001CV  24008.11326024  .00027127  00000-0  91489-3 0  9993","2 55100  97.4506  72.4667 0012711   7.9150 352.2289 15.30609634 56324","2023-001CV","55100","6852.129","94.080","482.704","465.285","0"
"GENERATED VIA SPACETRACK.ORG API","18 SPCS","55100","SPACEBEE-158","PAYLOAD","U","23001CV","2024-01-08 15:16:12","756000","15.30639818","0.0012625","97.4505","72.9914","6.1029","354.0363","0","999","5640","0.0009414","0.00027943","0","4156864","0 SPACEBEE-158","1 55100U 23001CV  24008.63625875  .00027943  00000-0  94140-3 0  9999","2 55100  97.4505  72.9914 0012625   6.1029 354.0363 15.30639818 56402","2023-001CV","55100","6852.039","94.078","482.555","465.253","0"
"GENERATED VIA SPACETRACK.ORG API","18 SPCS","55100","SPACEBEE-158","PAYLOAD","U","23001CV","2024-01-08 15:16:12","756000","15.30639818","0.0012625","97.4505","72.9914","6.1029","354.0363","0","999","5640","0.0009414","0.00027943","0","4156930","0 SPACEBEE-158","1 55100U 23001CV  24008.63625875  .00027943  00000-0  94140-3 0  9999","2 55100  97.4505  72.9914 0012625   6.1029 354.0363 15.30639818 56402","2023-001CV","55100","6852.039","94.078","482.555","465.253","0"
"GENERATED VIA SPACETRACK.ORG API","18 SPCS","55100","SPACEBEE-158","PAYLOAD","U","23001CV","2024-01-09 10:05:51","597312","15.30688527","0.001252","97.4504","73.779","3.4205","356.7119","0","999","5652","0.0010471","0.00031148","0","4157515","0 SPACEBEE-158","1 55100U 23001CV  24009.42073608  .00031148  00000-0  10471-2 0  9994","2 55100  97.4504  73.7790 0012520   3.4205 356.7119 15.30688527 56524","2023-001CV","55100","6851.894","94.075","482.337","465.180","0"
"GENERATED VIA SPACETRACK.ORG API","18 SPCS","55100","SPACEBEE-158","PAYLOAD","U","23001CV","2024-01-09 16:22:24","46464","15.30707388","0.0012494","97.4502","74.0417","2.468","357.662","0","999","5656","0.001088","0.00032391","0","4157690","0 SPACEBEE-158","1 55100U 23001CV  24009.68222276  .00032391  00000-0  10880-2 0  9994","2 55100  97.4502  74.0417 0012494   2.4680 357.6620 15.30707388 56566","2023-001CV","55100","6851.838","94.074","482.263","465.142","0"
"GENERATED VIA SPACETRACK.ORG API","18 SPCS","55100","SPACEBEE-158","PAYLOAD","U","23001CV","2024-01-09 16:22:24","46464","15.30707388","0.0012494","97.4502","74.0417","2.468","357.662","0","999","5656","0.001088","0.00032391","0","4157773","0 SPACEBEE-158","1 55100U 23001CV  24009.68222276  .00032391  00000-0  10880-2 0  9994","2 55100  97.4502  74.0417 0012494   2.4680 357.6620 15.30707388 56566","2023-001CV","55100","6851.838","94.074","482.263","465.142","0"
"GENERATED VIA SPACETRACK.ORG API","18 SPCS","55100","SPACEBEE-158","PAYLOAD","U","23001CV","2024-01-10 03:21:20","224224","15.30736184","0.0012486","97.45","74.5011","0.7759","359.3499","0","999","5663","0.001068","0.0003182","0","4158336","0 SPACEBEE-158","1 55100U 23001CV  24010.13981741  .00031820  00000-0  10680-2 0  9999","2 55100  97.4500  74.5011 0012486   0.7759 359.3499 15.30736184 56635","2023-001CV","55100","6851.752","94.072","482.172","465.061","0"
